CCSDS_OMM_VERS = 2.0
CREATION_DATE  = 
ORIGINATOR     = 

OBJECT_NAME    = AQUA
OBJECT_ID      = 2002-022A
CENTER_NAME    = EARTH
REF_FRAME      = TEME
TIME_SYSTEM    = UTC
MEAN_ELEMENT_THEORY = SGP/SGP4

EPOCH          = 2026-03-18T16:06:57.272544
MEAN_MOTION    = 14.61997998
ECCENTRICITY   = .00007352
INCLINATION    = 98.4190
RA_OF_ASC_NODE = 45.2010
ARG_OF_PERICENTER = 110.3365
MEAN_ANOMALY   = 62.5226

EPHEMERIS_TYPE = 0
CLASSIFICATION_TYPE = U
NORAD_CAT_ID   = 27424
ELEMENT_SET_NO = 999
REV_AT_EPOCH   = 27004
BSTAR          = .18784156E-3
MEAN_MOTION_DOT = .892E-5
MEAN_MOTION_DDOT = 0

CCSDS_OMM_VERS = 2.0
CREATION_DATE  = 
ORIGINATOR     = 

OBJECT_NAME    = CZ-4B R/B
OBJECT_ID      = 2002-024C
CENTER_NAME    = EARTH
REF_FRAME      = TEME
TIME_SYSTEM    = UTC
MEAN_ELEMENT_THEORY = SGP/SGP4

EPOCH          = 2026-03-18T13:58:07.648608
MEAN_MOTION    = 14.14549158
ECCENTRICITY   = .00500339
INCLINATION    = 98.8819
RA_OF_ASC_NODE = 130.9432
ARG_OF_PERICENTER = 359.0472
MEAN_ANOMALY   = 170.8661

EPHEMERIS_TYPE = 0
CLASSIFICATION_TYPE = U
NORAD_CAT_ID   = 27432
ELEMENT_SET_NO = 999
REV_AT_EPOCH   = 23049
BSTAR          = .43037801E-4
MEAN_MOTION_DOT = .39E-6
MEAN_MOTION_DDOT = 0

CCSDS_OMM_VERS = 2.0
CREATION_DATE  = 
ORIGINATOR     = 

OBJECT_NAME    = MIDORI II (ADEOS-II)
OBJECT_ID      = 2002-056A
CENTER_NAME    = EARTH
REF_FRAME      = TEME
TIME_SYSTEM    = UTC
MEAN_ELEMENT_THEORY = SGP/SGP4

EPOCH          = 2026-03-18T14:58:57.920736
MEAN_MOTION    = 14.29291889
ECCENTRICITY   = .00012292
INCLINATION    = 98.7784
RA_OF_ASC_NODE = 36.1645
ARG_OF_PERICENTER = 31.4476
MEAN_ANOMALY   = 328.6778

EPHEMERIS_TYPE = 0
CLASSIFICATION_TYPE = U
NORAD_CAT_ID   = 27597
ELEMENT_SET_NO = 999
REV_AT_EPOCH   = 21157
BSTAR          = .1238359E-3
MEAN_MOTION_DOT = .27E-5
MEAN_MOTION_DDOT = 0

CCSDS_OMM_VERS = 2.0
CREATION_DATE  = 
ORIGINATOR     = 

OBJECT_NAME    = H-2A R/B
OBJECT_ID      = 2002-056E
CENTER_NAME    = EARTH
REF_FRAME      = TEME
TIME_SYSTEM    = UTC
MEAN_ELEMENT_THEORY = SGP/SGP4

EPOCH          = 2026-03-18T10:34:01.413696
MEAN_MOTION    = 14.33766445
ECCENTRICITY   = .00709946
INCLINATION    = 98.3218
RA_OF_ASC_NODE = 37.4735
ARG_OF_PERICENTER = 134.8017
MEAN_ANOMALY   = 335.9289

EPHEMERIS_TYPE = 0
CLASSIFICATION_TYPE = U
NORAD_CAT_ID   = 27601
ELEMENT_SET_NO = 999
REV_AT_EPOCH   = 21536
BSTAR          = .98799369E-4
MEAN_MOTION_DOT = .241E-5
MEAN_MOTION_DDOT = 0

CCSDS_OMM_VERS = 2.0
CREATION_DATE  = 
ORIGINATOR     = 

OBJECT_NAME    = CZ-4B R/B
OBJECT_ID      = 2003-049C
CENTER_NAME    = EARTH
REF_FRAME      = TEME
TIME_SYSTEM    = UTC
MEAN_ELEMENT_THEORY = SGP/SGP4

EPOCH          = 2026-03-18T09:24:36.660672
MEAN_MOTION    = 14.55028306
ECCENTRICITY   = .00476516
INCLINATION    = 98.6886
RA_OF_ASC_NODE = 72.6388
ARG_OF_PERICENTER = 203.9081
MEAN_ANOMALY   = 155.9902

EPHEMERIS_TYPE = 0
CLASSIFICATION_TYPE = U
NORAD_CAT_ID   = 28059
ELEMENT_SET_NO = 999
REV_AT_EPOCH   = 18786
BSTAR          = .85858394E-4
MEAN_MOTION_DOT = .324E-5
MEAN_MOTION_DDOT = 0

CCSDS_OMM_VERS = 2.0
CREATION_DATE  = 
ORIGINATOR     = 

OBJECT_NAME    = CZ-2C R/B
OBJECT_ID      = 2004-012C
CENTER_NAME    = EARTH
REF_FRAME      = TEME
TIME_SYSTEM    = UTC
MEAN_ELEMENT_THEORY = SGP/SGP4

EPOCH          = 2026-03-18T02:42:38.378016
MEAN_MOTION    = 15.65523615
ECCENTRICITY   = .00129385
INCLINATION    = 97.7213
RA_OF_ASC_NODE = 143.2093
ARG_OF_PERICENTER = 274.9057
MEAN_ANOMALY   = 85.0725

EPHEMERIS_TYPE = 0
CLASSIFICATION_TYPE = U
NORAD_CAT_ID   = 28222
ELEMENT_SET_NO = 999
REV_AT_EPOCH   = 20559
BSTAR          = .46804359E-3
MEAN_MOTION_DOT = .47115E-3
MEAN_MOTION_DDOT = 0

CCSDS_OMM_VERS = 2.0
CREATION_DATE  = 
ORIGINATOR     = 

OBJECT_NAME    = SL-16 R/B
OBJECT_ID      = 2004-021B
CENTER_NAME    = EARTH
REF_FRAME      = TEME
TIME_SYSTEM    = UTC
MEAN_ELEMENT_THEORY = SGP/SGP4

EPOCH          = 2026-03-18T10:30:01.158624
MEAN_MOTION    = 14.14594294
ECCENTRICITY   = .00044964
INCLINATION    = 70.9997
RA_OF_ASC_NODE = 214.1339
ARG_OF_PERICENTER = 358.2588
MEAN_ANOMALY   = 1.8518

EPHEMERIS_TYPE = 0
CLASSIFICATION_TYPE = U
NORAD_CAT_ID   = 28353
ELEMENT_SET_NO = 999
REV_AT_EPOCH   = 12407
BSTAR          = -.10291652E-3
MEAN_MOTION_DOT = -.245E-5
MEAN_MOTION_DDOT = 0

CCSDS_OMM_VERS = 2.0
CREATION_DATE  = 
ORIGINATOR     = 

OBJECT_NAME    = CZ-4B R/B
OBJECT_ID      = 2004-035C
CENTER_NAME    = EARTH
REF_FRAME      = TEME
TIME_SYSTEM    = UTC
MEAN_ELEMENT_THEORY = SGP/SGP4

EPOCH          = 2026-03-18T02:08:08.026656
MEAN_MOTION    = 15.29210484
ECCENTRICITY   = .00302142
INCLINATION    = 97.3482
RA_OF_ASC_NODE = 111.2311
ARG_OF_PERICENTER = 300.3467
MEAN_ANOMALY   = 59.4786

EPHEMERIS_TYPE = 0
CLASSIFICATION_TYPE = U
NORAD_CAT_ID   = 28415
ELEMENT_SET_NO = 999
REV_AT_EPOCH   = 18119
BSTAR          = .21182498E-3
MEAN_MOTION_DOT = .6008E-4
MEAN_MOTION_DDOT = 0

CCSDS_OMM_VERS = 2.0
CREATION_DATE  = 
ORIGINATOR     = 

OBJECT_NAME    = CZ-2C R/B
OBJECT_ID      = 2004-046B
CENTER_NAME    = EARTH
REF_FRAME      = TEME
TIME_SYSTEM    = UTC
MEAN_ELEMENT_THEORY = SGP/SGP4

EPOCH          = 2026-03-18T11:03:29.629440
MEAN_MOTION    = 14.26995118
ECCENTRICITY   = .01403448
INCLINATION    = 98.1982
RA_OF_ASC_NODE = 351.8986
ARG_OF_PERICENTER = 128.6272
MEAN_ANOMALY   = 232.7572

EPHEMERIS_TYPE = 0
CLASSIFICATION_TYPE = U
NORAD_CAT_ID   = 28480
ELEMENT_SET_NO = 999
REV_AT_EPOCH   = 10975
BSTAR          = .61771682E-4
MEAN_MOTION_DOT = .127E-5
MEAN_MOTION_DDOT = 0

CCSDS_OMM_VERS = 2.0
CREATION_DATE  = 
ORIGINATOR     = 

OBJECT_NAME    = ARIANE 5 R/B
OBJECT_ID      = 2004-049H
CENTER_NAME    = EARTH
REF_FRAME      = TEME
TIME_SYSTEM    = UTC
MEAN_ELEMENT_THEORY = SGP/SGP4

EPOCH          = 2026-03-18T10:59:18.151872
MEAN_MOTION    = 14.85281849
ECCENTRICITY   = .0083357
INCLINATION    = 98.2640
RA_OF_ASC_NODE = 246.2438
ARG_OF_PERICENTER = 323.3410
MEAN_ANOMALY   = 36.2117

EPHEMERIS_TYPE = 0
CLASSIFICATION_TYPE = U
NORAD_CAT_ID   = 28499
ELEMENT_SET_NO = 999
REV_AT_EPOCH   = 14709
BSTAR          = .85564436E-4
MEAN_MOTION_DOT = .716E-5
MEAN_MOTION_DDOT = 0

CCSDS_OMM_VERS = 2.0
CREATION_DATE  = 
ORIGINATOR     = 

OBJECT_NAME    = CZ-2D R/B
OBJECT_ID      = 2005-024B
CENTER_NAME    = EARTH
REF_FRAME      = TEME
TIME_SYSTEM    = UTC
MEAN_ELEMENT_THEORY = SGP/SGP4

EPOCH          = 2026-03-18T11:51:26.532576
MEAN_MOTION    = 15.60932652
ECCENTRICITY   = .00043058
INCLINATION    = 97.3581
RA_OF_ASC_NODE = 92.9681
ARG_OF_PERICENTER = 22.4109
MEAN_ANOMALY   = 337.7336

EPHEMERIS_TYPE = 0
CLASSIFICATION_TYPE = U
NORAD_CAT_ID   = 28738
ELEMENT_SET_NO = 999
REV_AT_EPOCH   = 14115
BSTAR          = .38021211E-3
MEAN_MOTION_DOT = .31794E-3
MEAN_MOTION_DDOT = 0

CCSDS_OMM_VERS = 2.0
CREATION_DATE  = 
ORIGINATOR     = 

OBJECT_NAME    = ALOS (DAICHI)
OBJECT_ID      = 2006-002A
CENTER_NAME    = EARTH
REF_FRAME      = TEME
TIME_SYSTEM    = UTC
MEAN_ELEMENT_THEORY = SGP/SGP4

EPOCH          = 2026-03-18T15:00:11.644128
MEAN_MOTION    = 14.69838352
ECCENTRICITY   = .00007217
INCLINATION    = 98.1234
RA_OF_ASC_NODE = 33.5366
ARG_OF_PERICENTER = 78.6762
MEAN_ANOMALY   = 281.4524

EPHEMERIS_TYPE = 0
CLASSIFICATION_TYPE = U
NORAD_CAT_ID   = 28931
ELEMENT_SET_NO = 999
REV_AT_EPOCH   = 7479
BSTAR          = .2176762E-3
MEAN_MOTION_DOT = .1251E-4
MEAN_MOTION_DDOT = 0

