AQUA                    
1 27424U 02022A   26077.67149621  .00000892  00000+0  18784-3 0  9992
2 27424  98.4190  45.2010 0000735 110.3365  62.5226 14.61997998270047
CZ-4B R/B               
1 27432U 02024C   26077.58203297  .00000039  00000+0  43038-4 0  9997
2 27432  98.8819 130.9432 0050033 359.0472 170.8661 14.14549158230495
MIDORI II (ADEOS-II)    
1 27597U 02056A   26077.62428149  .00000270  00000+0  12384-3 0  9990
2 27597  98.7784  36.1645 0001229  31.4476 328.6778 14.29291889211579
H-2A R/B                
1 27601U 02056E   26077.44029414  .00000241  00000+0  98799-4 0  9991
2 27601  98.3218  37.4735 0070994 134.8017 335.9289 14.33766445215360
CZ-4B R/B               
1 28059U 03049C   26077.39209098  .00000324  00000+0  85858-4 0  9998
2 28059  98.6886  72.6388 0047651 203.9081 155.9902 14.55028306187866
CZ-2C R/B               
1 28222U 04012C   26077.11294419  .00047115  00000+0  46804-3 0  9998
2 28222  97.7213 143.2093 0012938 274.9057  85.0725 15.65523615205593
SL-16 R/B               
1 28353U 04021B   26077.43751341 -.00000245  00000+0 -10292-3 0  9997
2 28353  70.9997 214.1339 0004496 358.2588   1.8518 14.14594294124079
CZ-4B R/B               
1 28415U 04035C   26077.08898179  .00006008  00000+0  21182-3 0  9994
2 28415  97.3482 111.2311 0030214 300.3467  59.4786 15.29210484181193
CZ-2C R/B               
1 28480U 04046B   26077.46075960  .00000127  00000+0  61772-4 0  9991
2 28480  98.1982 351.8986 0140344 128.6272 232.7572 14.26995118109751
ARIANE 5 R/B            
1 28499U 04049H   26077.45784898  .00000716  00000+0  85564-4 0  9999
2 28499  98.2640 246.2438 0083357 323.3410  36.2117 14.85281849147095
CZ-2D R/B               
1 28738U 05024B   26077.49405709  .00031794  00000+0  38021-3 0  9999
2 28738  97.3581  92.9681 0004305  22.4109 337.7336 15.60932652141151
ALOS (DAICHI)           
1 28931U 06002A   26077.62513477  .00001251  00000+0  21768-3 0  9993
2 28931  98.1234  33.5366 0000721  78.6762 281.4524 14.69838352 74796
